{"fetched_at":"2026-07-20T18:29:40.381Z","source":"https://celestrak.org/NORAD/elements/gp.php?NAME=RADARSAT&FORMAT=JSON","constellation":"radarsat-2","records":[{"OBJECT_NAME":"RADARSAT-2","OBJECT_ID":"2007-061A","EPOCH":"2026-07-20T06:34:31.060704","CLASSIFICATION_TYPE":"U","MEAN_MOTION":14.2998434,"ECCENTRICITY":0.00013312,"INCLINATION":98.5788,"RA_OF_ASC_NODE":207.7345,"ARG_OF_PERICENTER":85.5051,"MEAN_ANOMALY":274.6284,"EPHEMERIS_TYPE":0,"NORAD_CAT_ID":32382,"ELEMENT_SET_NO":999,"REV_AT_EPOCH":97068,"BSTAR":0.000064062693,"MEAN_MOTION_DOT":0.00000122,"MEAN_MOTION_DDOT":0}]}
